NOAA 1 [-]              
1 04793U 70106A   22234.44869203 -.00000046  00000+0 -15889-4 0  9992
2 04793 101.5521 296.5837 0031647 193.0626 178.3412 12.54006925365866
NOAA 2 (ITOS-D) [-]     
1 06235U 72082A   22234.74861133 -.00000026  00000+0  12894-3 0  9996
2 06235 101.9581 217.4064 0003836 314.1013 219.4863 12.53150563280273
NOAA 3 [-]              
1 06920U 73086A   22234.70994620 -.00000028  00000+0  13329-3 0  9992
2 06920 102.2119 216.4520 0006356 165.0570   8.6806 12.40347655209005
NOAA 4 [-]              
1 07529U 74089A   22234.72753573 -.00000018  00000+0  17716-3 0  9997
2 07529 101.9184 214.5703 0009000 340.3623 193.3230 12.53159457184849
NOAA 5 [-]              
1 09057U 76077A   22235.49183453 -.00000011  00000+0  25830-3 0  9992
2 09057 102.1033 202.7790 0010239  17.4156  93.8473 12.37773499 82263
TIROS N [-]             
1 11060U 78096A   22235.15002639  .00000042  00000+0  40895-4 0  9993
2 11060  98.6305 287.1088 0009714 315.7408  44.2990 14.18406593481309
NOAA 6 [-]              
1 11416U 79057A   22234.76911135  .00000118  00000+0  58362-4 0  9994
2 11416  98.6646 245.7279 0011434  65.9881 294.2499 14.33786860251025
NOAA 7 [-]              
1 12553U 81059A   22235.15386042  .00000002  00000+0  23726-4 0  9997
2 12553  98.9943 280.3821 0010502 287.8355  72.1674 14.17340641127468
NOAA 8 [-]              
1 13923U 83022A   22235.44307803  .00000039  00000+0  32937-4 0  9995
2 13923  98.6910 225.7378 0015472  18.0217 342.1510 14.28824784 52231
NOAA 9 [-]              
1 15427U 84123A   22235.43819037  .00000025  00000+0  36108-4 0  9994
2 15427  99.0510 208.8920 0014544 339.7826 134.5906 14.16216886946325
NOAA 10 [-]             
1 16969U 86073A   22234.74843144  .00000047  00000+0  36215-4 0  9994
2 16969  98.5724 219.6958 0013258 115.6983  57.2339 14.28214798870291
NOAA 11 [-]             
1 19531U 88089A   22234.72571440  .00000019  00000+0  30590-4 0  9995
2 19531  98.4289 220.1801 0010995 354.1870   5.9175 14.15318613750199
NOAA 12 [-]             
1 21263U 91032A   22234.79939156  .00000028  00000+0  29611-4 0  9993
2 21263  98.5169 232.7687 0014372 141.3950 218.8261 14.26005595626187
NOAA 13 [-]             
1 22739U 93050A   22234.73283725  .00000062  00000+0  55524-4 0  9992
2 22739  98.5099 211.2447 0010017 147.4373 212.7420 14.12856311496418
NOAA 14 [-]             
1 23455U 94089A   22234.84873535  .00000012  00000+0  27769-4 0  9992
2 23455  98.4458 257.9548 0010403 129.2662 230.9436 14.14205551426091
NOAA 15 [B]             
1 25338U 98030A   22235.49152449  .00000076  00000+0  49907-4 0  9998
2 25338  98.6412 264.1393 0011556 101.5677 258.6801 14.26163533262820
NOAA 16 [-]             
1 26536U 00055A   22234.87313950  .00000019  00000+0  32791-4 0  9996
2 26536  98.6315 291.4672 0010046 342.2184  17.8636 14.13339241426736
NOAA 17 [-]             
1 27453U 02032A   22235.48220736  .00000024  00000+0  28779-4 0  9996
2 27453  98.6744 179.9716 0013008  77.9107 282.3529 14.25135522 48412
NOAA 18 [B]             
1 28654U 05018A   22235.34647159  .00000117  00000+0  87116-4 0  9997
2 28654  98.9453 305.7178 0015064 139.8235 220.4053 14.12767095889512
NOAA 19 [+]             
1 33591U 09005A   22235.49697646  .00000079  00000+0  67683-4 0  9999
2 33591  99.1441 271.0284 0013878   4.1443 355.9841 14.12601061697917
SUOMI NPP [+]           
1 37849U 11061A   22235.45773888  .00000020  00000+0  30092-4 0  9993
2 37849  98.7338 173.0869 0001260  84.8618  52.7461 14.19539238560695
NOAA 20 [+]             
1 43013U 17073A   22235.46530037 -.00000008  00000+0  17105-4 0  9997
2 43013  98.7177 172.9784 0000770 109.9089 250.2170 14.19539458246738
